NORAD_CAT_ID,OBJECT_NAME,OBJECT_TYPE,EPOCH,MEAN_MOTION,ECCENTRICITY,INCLINATION,RA_OF_ASC_NODE,ARG_OF_PERICENTER,MEAN_ANOMALY,BSTAR,MEAN_MOTION_DOT,MEAN_MOTION_DDOT,TLE_LINE0,TLE_LINE1,TLE_LINE2,SEMIMAJOR_AXIS,PERIOD,APOGEE,PERIGEE,DECAYED
53889.0,STARLINK-5031,PAYLOAD,2023-04-01 08:14:44,15.08837521,0.000123,53.2168,102.7094,77.2064,282.9066,0.00015314,2.15e-05,0.0,0 STARLINK-5031,1 53889U 22119D   23091.34356715  .00002150  00000-0  15314-3 0  9992,2 53889  53.2168 102.7094 0001230  77.2064 282.9066 15.08837521 29649,6917.888,95.438,540.604,538.902,0.0
53889.0,STARLINK-5031,PAYLOAD,2023-04-01 17:47:03,15.08839393,0.0001405,53.2172,100.925,83.4428,276.6724,4.8956e-05,4.91e-06,0.0,0 STARLINK-5031,1 53889U 22119D   23091.74100841  .00000491  00000-0  48956-4 0  9998,2 53889  53.2172 100.9250 0001405  83.4428 276.6724 15.08839393 29702,6917.882,95.438,540.719,538.775,0.0
53889.0,STARLINK-5031,PAYLOAD,2023-04-02 04:54:45,15.08840387,0.0001413,53.2174,98.8435,87.0101,273.1052,2.6974e-05,1.41e-06,0.0,0 STARLINK-5031,1 53889U 22119D   23092.20468978  .00000141  00000-0  26974-4 0  9996,2 53889  53.2174  98.8435 0001413  87.0101 273.1052 15.08840387 29353,6917.879,95.438,540.722,538.767,0.0
53889.0,STARLINK-5031,PAYLOAD,2023-04-02 09:40:54,15.08843921,0.000132,53.2171,97.9519,84.9964,275.1179,3.3932e-05,2.52e-06,0.0,0 STARLINK-5031,1 53889U 22119D   23092.40340697  .00000252  00000-0  33932-4 0  9990,2 53889  53.2171  97.9519 0001320  84.9964 275.1179 15.08843921 29802,6917.868,95.437,540.647,538.82,0.0
53889.0,STARLINK-5031,PAYLOAD,2023-04-02 17:37:49,15.08845899,0.000131,53.2172,96.4662,84.0394,276.0748,1.3192e-05,-7.8e-07,0.0,0 STARLINK-5031,1 53889U 22119D   23092.73460538 -.00000078  00000-0  13192-4 0  9996,2 53889  53.2172  96.4662 0001310  84.0394 276.0748 15.08845899 29856,6917.862,95.437,540.634,538.821,0.0
53889.0,STARLINK-5031,PAYLOAD,2023-04-03 06:20:55,15.08841546,9.71e-05,53.217,94.0869,80.756,279.3541,8.3083e-05,1.035e-05,0.0,0 STARLINK-5031,1 53889U 22119D   23093.26452657  .00001035  00000-0  83083-4 0  9997,2 53889  53.2170  94.0869 0000971  80.7560 279.3541 15.08841546 29512,6917.876,95.437,540.412,539.069,0.0
53889.0,STARLINK-5031,PAYLOAD,2023-04-04 09:22:27,15.08848145,0.0001199,53.2181,89.0317,95.246,264.8669,0.00018172,2.606e-05,0.0,0 STARLINK-5031,1 53889U 22119D   23094.39059892  .00002606  00000-0  18172-3 0  9997,2 53889  53.2181  89.0317 0001199  95.2460 264.8669 15.08848145 29689,6917.855,95.437,540.55,538.891,0.0
53889.0,STARLINK-5031,PAYLOAD,2023-04-05 02:51:43,15.08832845,0.0001174,53.2176,85.7578,102.6665,257.4459,5.1512e-05,5.32e-06,0.0,0 STARLINK-5031,1 53889U 22119D   23095.11925249  .00000532  00000-0  51512-4 0  9998,2 53889  53.2176  85.7578 0001174 102.6665 257.4459 15.08832845 29795,6917.902,95.438,540.579,538.955,0.0
53889.0,STARLINK-5031,PAYLOAD,2023-04-05 09:13:15,15.08836384,0.0001257,53.2176,84.5698,97.9307,262.1828,-1.1503e-05,-4.71e-06,0.0,0 STARLINK-5031,1 53889U 22119D   23095.38421185 -.00000471  00000-0 -11503-4 0  9997,2 53889  53.2176  84.5698 0001257  97.9307 262.1828 15.08836384 30254,6917.891,95.438,540.626,538.887,0.0
53889.0,STARLINK-5031,PAYLOAD,2023-04-06 02:42:30,15.08843519,0.0001291,53.2183,81.2985,106.2075,253.9059,-1.1307e-05,-4.68e-06,0.0,0 STARLINK-5031,1 53889U 22119D   23096.11284752 -.00000468  00000-0 -11307-4 0  9994,2 53889  53.2183  81.2985 0001291 106.2075 253.9059 15.08843519 29945,6917.87,95.437,540.628,538.842,0.0
53889.0,STARLINK-5031,PAYLOAD,2023-04-06 09:04:02,15.08848698,0.0001231,53.2182,80.1107,91.5045,268.6088,5.6354e-05,6.09e-06,0.0,0 STARLINK-5031,1 53889U 22119D   23096.37780235  .00000609  00000-0  56354-4 0  9995,2 53889  53.2182  80.1107 0001231  91.5045 268.6088 15.08848698 30406,6917.854,95.437,540.57,538.867,0.0
53889.0,STARLINK-5031,PAYLOAD,2023-04-06 15:25:35,15.08841278,0.0001251,53.2185,78.9203,92.4307,267.6828,1.3123e-06,-2.67e-06,0.0,0 STARLINK-5031,1 53889U 22119D   23096.64276755 -.00000267  00000-0  13123-5 0  9991,2 53889  53.2185  78.9203 0001251  92.4307 267.6828 15.08841278 30446,6917.876,95.437,540.607,538.876,0.0
53889.0,STARLINK-5031,PAYLOAD,2023-04-07 07:19:26,15.08839087,0.0001238,53.2178,75.9481,95.7856,264.3277,0.0001217,1.649e-05,0.0,0 STARLINK-5031,1 53889U 22119D   23097.30516936  .00001649  00000-0  12170-3 0  9996,2 53889  53.2178  75.9481 0001238  95.7856 264.3277 15.08839087 30125,6917.883,95.438,540.605,538.892,0.0
53889.0,STARLINK-5031,PAYLOAD,2023-04-08 03:59:28,15.08838535,0.0001272,53.2178,72.0829,103.5997,256.5137,-6.5716e-05,-1.334e-05,0.0,0 STARLINK-5031,1 53889U 22119D   23098.16629716 -.00001334  00000-0 -65716-4 0  9990,2 53889  53.2178  72.0829 0001272 103.5997 256.5137 15.08838535 30250,6917.885,95.438,540.63,538.87,0.0
53889.0,STARLINK-5031,PAYLOAD,2023-04-08 08:45:37,15.08841907,0.0001263,53.2181,71.1909,92.7787,267.335,-1.219e-05,-4.82e-06,0.0,0 STARLINK-5031,1 53889U 22119D   23098.36501390 -.00000482  00000-0 -12190-4 0  9990,2 53889  53.2181  71.1909 0001263  92.7787 267.3350 15.08841907 30703,6917.875,95.437,540.613,538.866,0.0
53889.0,STARLINK-5031,PAYLOAD,2023-04-09 07:01:00,15.08843158,0.000124,53.2184,67.0269,90.3873,269.7261,7.4049e-05,8.91e-06,0.0,0 STARLINK-5031,1 53889U 22119D   23099.29237193  .00000891  00000-0  74049-4 0  9993,2 53889  53.2184  67.0269 0001240  90.3873 269.7261 15.08843158 30420,6917.871,95.437,540.594,538.878,0.0
53889.0,STARLINK-5031,PAYLOAD,2023-04-09 14:57:57,15.08839053,0.0001271,53.2186,65.5403,86.2771,273.8367,1.4344e-05,-6e-07,0.0,0 STARLINK-5031,1 53889U 22119D   23099.62357673 -.00000060  00000-0  14344-4 0  9997,2 53889  53.2186  65.5403 0001271  86.2771 273.8367 15.08839053 30477,6917.883,95.438,540.628,538.869,0.0
53889.0,STARLINK-5031,PAYLOAD,2023-04-10 03:41:02,15.08824516,0.0001278,53.2186,63.1613,85.7153,274.3986,0.00028619,4.268e-05,0.0,0 STARLINK-5031,1 53889U 22119D   23100.15350314  .00004268  00000-0  28619-3 0  9995,2 53889  53.2186  63.1613 0001278  85.7153 274.3986 15.08824516 30559,6917.928,95.439,540.677,538.909,0.0
53889.0,STARLINK-5031,PAYLOAD,2023-04-10 05:16:25,15.08840353,0.0001175,53.2187,62.864,85.1443,274.9684,6.9784e-05,8.23e-06,0.0,0 STARLINK-5031,1 53889U 22119D   23100.21973662  .00000823  00000-0  69784-4 0  9991,2 53889  53.2187  62.8640 0001175  85.1443 274.9684 15.08840353 30567,6917.879,95.438,540.557,538.931,0.0
53889.0,STARLINK-5031,PAYLOAD,2023-04-11 03:31:48,15.08848607,0.0001081,53.219,58.7006,94.241,265.8705,0.00010609,1.401e-05,0.0,0 STARLINK-5031,1 53889U 22119D   23101.14708765  .00001401  00000-0  10609-3 0  9998,2 53889  53.2190  58.7006 0001081  94.2410 265.8705 15.08848607 30701,6917.854,95.437,540.467,538.971,0.0
53889.0,STARLINK-5031,PAYLOAD,2023-04-11 06:42:34,15.08852177,0.0001145,53.2189,58.1049,100.3992,259.7129,0.00011565,1.554e-05,0.0,0 STARLINK-5031,1 53889U 22119D   23101.27956447  .00001554  00000-0  11565-3 0  9995,2 53889  53.2189  58.1049 0001145 100.3992 259.7129 15.08852177 31143,6917.843,95.437,540.5,538.916,0.0
53889.0,STARLINK-5031,PAYLOAD,2023-04-11 21:01:03,15.08836758,0.0001367,53.2183,55.4318,79.2394,280.8752,6.5222e-05,7.5e-06,0.0,0 STARLINK-5031,1 53889U 22119D   23101.87573785  .00000750  00000-0  65222-4 0  9998,2 53889  53.2183  55.4318 0001367  79.2394 280.8752 15.08836758 31236,6917.89,95.438,540.701,538.81,0.0
53889.0,STARLINK-5031,PAYLOAD,2023-04-12 03:22:36,15.0883866,0.0001251,53.2191,54.2412,87.6752,272.4383,8.2332e-05,1.023e-05,0.0,0 STARLINK-5031,1 53889U 22119D   23102.14069649  .00001023  00000-0  82332-4 0  9993,2 53889  53.2191  54.2412 0001251  87.6752 272.4383 15.08838660 31275,6917.884,95.438,540.615,538.884,0.0
53889.0,STARLINK-5031,PAYLOAD,2023-04-13 03:13:24,15.08832133,0.0001424,53.2192,49.7819,100.25,259.8653,-0.00016029,-2.837e-05,0.0,0 STARLINK-5031,1 53889U 22119D   23103.13431274 -.00002837  00000-0 -16029-3 0  9995,2 53889  53.2192  49.7819 0001424 100.2500 259.8653 15.08832133 31426,6917.904,95.438,540.755,538.784,0.0
53889.0,STARLINK-5031,PAYLOAD,2023-04-14 06:14:57,15.08847621,0.0001696,53.2194,44.7285,104.4468,255.6713,0.00034566,5.219e-05,0.0,0 STARLINK-5031,1 53889U 22119D   23104.26038501  .00005219  00000-0  34566-3 0  9997,2 53889  53.2194  44.7285 0001696 104.4468 255.6713 15.08847621 31597,6917.857,95.437,540.895,538.549,0.0
53889.0,STARLINK-5031,PAYLOAD,2023-04-15 02:54:57,15.08850579,0.0001486,53.2171,40.8638,119.6943,240.4197,0.00019522,2.821e-05,0.0,0 STARLINK-5031,1 53889U 22119D   23105.12150292  .00002821  00000-0  19522-3 0  9996,2 53889  53.2171  40.8638 0001486 119.6943 240.4197 15.08850579 31307,6917.848,95.437,540.741,538.685,0.0
53889.0,STARLINK-5031,PAYLOAD,2023-04-15 04:30:20,15.08856628,0.0001331,53.2178,40.5634,104.8401,255.2739,0.00028958,4.326e-05,0.0,0 STARLINK-5031,1 53889U 22119D   23105.18774022  .00004326  00000-0  28958-3 0  9990,2 53889  53.2178  40.5634 0001331 104.8401 255.2739 15.08856628 31735,6917.83,95.437,540.615,538.774,0.0
53889.0,STARLINK-5031,PAYLOAD,2023-04-16 04:21:07,15.08852195,0.0001465,53.2182,36.1005,97.9984,262.1174,-3.0879e-05,-7.8e-06,0.0,0 STARLINK-5031,1 53889U 22119D   23106.18133879 -.00000780  00000-0 -30879-4 0  9998,2 53889  53.2182  36.1005 0001465  97.9984 262.1174 15.08852195 31464,6917.843,95.437,540.722,538.695,0.0
53889.0,STARLINK-5031,PAYLOAD,2023-04-17 04:11:54,15.0884778,0.0001286,53.2181,31.6422,92.7938,267.3201,1.4485e-05,-5.7e-07,0.0,0 STARLINK-5031,1 53889U 22119D   23107.17493884 -.00000057  00000-0  14485-4 0  9994,2 53889  53.2181  31.6422 0001286  92.7938 267.3201 15.08847780 31618,6917.857,95.437,540.611,538.832,0.0
53889.0,STARLINK-5031,PAYLOAD,2023-04-17 18:30:23,15.08842709,0.0001327,53.2177,28.9692,78.6321,281.482,6.9583e-05,8.2e-06,0.0,0 STARLINK-5031,1 53889U 22119D   23107.77110563  .00000820  00000-0  69583-4 0  9996,2 53889  53.2177  28.9692 0001327  78.6321 281.4820 15.08842709 32123,6917.872,95.437,540.655,538.819,0.0
